ION SCV-004             
1 50993U 22002K   26068.68892644  .00006538  00000+0  23198-3 0  9998
2 50993  97.2961 128.2294 0007216   1.6783 358.4480 15.29369331230088
STARLINK-34093          
1 64015U 25101X   26068.14183799  .00038674  00000+0  14076-2 0  9996
2 64015  43.0048   0.8620 0001981 255.4344 104.6288 15.27578207 46978
